INTELSAT 23 (IS-23)     
1 38867U 12057A   26065.28586214 -.00000290  00000+0  00000+0 0  9992
2 38867   0.0488 261.5961 0001213  93.7072 218.6039  1.00269975 48920
FM-6                    
1 39360U 13058A   26064.63156826 -.00000025  00000+0  00000+0 0  9999
2 39360   0.0240 127.8287 0002875  59.2462  87.4741  1.00276991 45032
INTELSAT 30 (IS-30)     
1 40271U 14062A   26064.84965330 -.00000157  00000+0  00000+0 0  9995
2 40271   0.0186  81.7272 0001495  27.0241 265.6525  1.00273148  5757
DIRECTV 14              
1 40333U 14078B   26064.63477494  .00000000  00000+0  00000+0 0  9993
2 40333   0.0223 140.6418 0000594 348.2371 163.7954  1.00271102 41006
DIRECTV 15              
1 40663U 15026A   26065.18377969 -.00000107  00000+0  00000+0 0  9999
2 40663   0.0240 102.4944 0000371 105.1907 279.4884  1.00270336 39438
SKY MEXICO-1            
1 40664U 15026B   26064.42495398 -.00000242  00000+0  00000+0 0  9993
2 40664   0.0200 125.8533 0002250 238.8701 232.6041  1.00269501 39418
INTELSAT 34 (IS-34)     
1 40874U 15039A   26065.19628160  .00000000  00000+0  00000+0 0  9991
2 40874   0.0148 175.6288 0000558 271.8662  91.6089  1.00267487 38598
INTELSAT 31 (IS-31)     
1 41581U 16035A   26065.18377969 -.00000156  00000+0  00000+0 0  9994
2 41581   0.0328 243.1779 0001579 352.3525 259.4775  1.00271168 35658
INTELSAT 36 (IS-36)     
1 41747U 16053A   26064.55705715 -.00000031  00000+0  00000+0 0  9994
2 41747   0.0200  99.8975 0001513 233.3854  99.0273  1.00269299 34917
INTELSAT 32E (IS-32E)   
1 41945U 17007B   26064.50338767 -.00000276  00000+0  00000+0 0  9999
2 41945   0.0110 118.1682 0000302 237.3310 305.7579  1.00275199 33183
INTELSAT 35E (IS-35E)   
1 42818U 17041A   26064.17683490 -.00000247  00000+0  00000+0 0  9994
2 42818   0.0257 241.7413 0002225 103.6087 206.6952  1.00270890 31772
INTELSAT 37E (IS-37E)   
1 42950U 17059A   26065.20155875 -.00000146  00000+0  00000+0 0  9994
2 42950   0.0201 142.8040 0002150 206.2734 229.3941  1.00271680 31038
AZERSPACE 2 (IS-38)     
1 43632U 18074A   26064.31642096  .00000000  00000+0  00000+0 0  9995
2 43632   0.0249 144.2303 0001446 216.1159 321.7363  1.00271143 27409
HORIZONS-3E             
1 43633U 18074B   26064.90195612 -.00000037  00000+0  00000+0 0  9999
2 43633   0.0160 332.6823 0000535  13.4082 311.2086  1.00271692 27307
AT&T T-16               
1 44333U 19034A   26064.99113649 -.00000121  00000+0  00000+0 0  9997
2 44333   0.0236 101.3996 0000890  62.4405 255.8141  1.00273702 24595
INTELSAT 39 (IS-39)     
1 44476U 19049B   26064.45286078  .00000000  00000+0  00000+0 0  9994
2 44476   0.0244 149.9814 0000721 354.7122 243.4677  1.00269682 24088
GALAXY 30 (G-30)        
1 46114U 20056C   26065.20023509  .00000000  00000+0  00000+0 0  9997
2 46114   0.0219 157.5266 0002051 197.8268 115.6677  1.00271496 20264
